{"type": "FeatureCollection", "features": [ {"type": "Feature", "properties": {"norad_id": 31820, "name": "FENGYUN 1C DEB", "group": "fengyun-1c-debris", "lat": 58.628051742765, "lon": 143.1509496873903, "alt_km": 516.178526661246, "timestamp": "2025-12-13T03:42:11.557345+00:00", "meta": {"OBJECT_NAME": "FENGYUN 1C DEB", "OBJECT_ID": "1999-025CHJ", "EPOCH": "2025-12-12T06:31:20.906400", "MEAN_MOTION": 14.92186059, "ECCENTRICITY": 0.01501152, "INCLINATION": 98.9601, "RA_OF_ASC_NODE": 157.1447, "ARG_OF_PERICENTER": 13.4392, "MEAN_ANOMALY": 347.0754, "EPHEMERIS_TYPE": 0, "CLASSIFICATION_TYPE": "U", "NORAD_CAT_ID": 31820, "ELEMENT_SET_NO": 999, "REV_AT_EPOCH": 98249, "BSTAR": 0.001478538, "MEAN_MOTION_DOT": 0.00018701, "MEAN_MOTION_DDOT": 0}, "tle": {"line1": "1 31820U 99025CHJ 25346.27176975  .00018701  00000+0  14785-2 0  9996", "line2": "2 31820  98.9601 157.1447 0150115  13.4392 347.0754 14.92186059982490"}}, "geometry": {"type": "Point", "coordinates": [143.1509496873903, 58.628051742765]}}, {"type": "Feature", "properties": {"norad_id": 31821, "name": "FENGYUN 1C DEB", "group": "fengyun-1c-debris", "lat": -8.511816276809537, "lon": -126.67799753132859, "alt_km": 609.7813000872202, "timestamp": "2025-12-13T03:42:11.557357+00:00", "meta": {"OBJECT_NAME": "FENGYUN 1C DEB", "OBJECT_ID": "1999-025CHK", "EPOCH": "2025-12-11T15:06:12.153312", "MEAN_MOTION": 14.41886159, "ECCENTRICITY": 0.02201906, "INCLINATION": 98.156, "RA_OF_ASC_NODE": 230.6337, "ARG_OF_PERICENTER": 17.9163, "MEAN_ANOMALY": 342.9635, "EPHEMERIS_TYPE": 0, "CLASSIFICATION_TYPE": "U", "NORAD_CAT_ID": 31821, "ELEMENT_SET_NO": 999, "REV_AT_EPOCH": 93645, "BSTAR": 0.0074094716, "MEAN_MOTION_DOT": 0.00032524, "MEAN_MOTION_DDOT": 0}, "tle": {"line1": "1 31821U 99025CHK 25345.62930733  .00032524  00000+0  74095-2 0  9994", "line2": "2 31821  98.1560 230.6337 0220190  17.9163 342.9635 14.41886159936457"}}, "geometry": {"type": "Point", "coordinates": [-126.67799753132859, -8.511816276809537]}}, {"type": "Feature", "properties": {"norad_id": 31823, "name": "FENGYUN 1C DEB", "group": "fengyun-1c-debris", "lat": -14.489646274466823, "lon": -109.0474377699091, "alt_km": 655.3807149044487, "timestamp": "2025-12-13T03:42:11.557367+00:00", "meta": {"OBJECT_NAME": "FENGYUN 1C DEB", "OBJECT_ID": "1999-025CHM", "EPOCH": "2025-12-11T11:29:41.299872", "MEAN_MOTION": 14.65668645, "ECCENTRICITY": 0.00371198, "INCLINATION": 99.5109, "RA_OF_ASC_NODE": 71.4988, "ARG_OF_PERICENTER": 223.1931, "MEAN_ANOMALY": 136.6355, "EPHEMERIS_TYPE": 0, "CLASSIFICATION_TYPE": "U", "NORAD_CAT_ID": 31823, "ELEMENT_SET_NO": 999, "REV_AT_EPOCH": 96699, "BSTAR": 0.0028139531, "MEAN_MOTION_DOT": 0.00015431, "MEAN_MOTION_DDOT": 0}, "tle": {"line1": "1 31823U 99025CHM 25345.47895023  .00015431  00000+0  28140-2 0  9999", "line2": "2 31823  99.5109  71.4988 0037119 223.1931 136.6355 14.65668645966990"}}, "geometry": {"type": "Point", "coordinates": [-109.0474377699091, -14.489646274466823]}}, {"type": "Feature", "properties": {"norad_id": 31825, "name": "FENGYUN 1C DEB", "group": "fengyun-1c-debris", "lat": -18.4625786068651, "lon": 163.85030595395546, "alt_km": 913.3263284420555, "timestamp": "2025-12-13T03:42:11.557379+00:00", "meta": {"OBJECT_NAME": "FENGYUN 1C DEB", "OBJECT_ID": "1999-025CHP", "EPOCH": "2025-12-12T04:48:15.418944", "MEAN_MOTION": 14.21643578, "ECCENTRICITY": 0.01655696, "INCLINATION": 98.5904, "RA_OF_ASC_NODE": 345.814, "ARG_OF_PERICENTER": 339.9495, "MEAN_ANOMALY": 19.5227, "EPHEMERIS_TYPE": 0, "CLASSIFICATION_TYPE": "U", "NORAD_CAT_ID": 31825, "ELEMENT_SET_NO": 999, "REV_AT_EPOCH": 95614, "BSTAR": 0.0011210457, "MEAN_MOTION_DOT": 2.784e-05, "MEAN_MOTION_DDOT": 0}, "tle": {"line1": "1 31825U 99025CHP 25346.20017846  .00002784  00000+0  11210-2 0  9999", "line2": "2 31825  98.5904 345.8140 0165569 339.9495  19.5227 14.21643578956147"}}, "geometry": {"type": "Point", "coordinates": [163.85030595395546, -18.4625786068651]}}, {"type": "Feature", "properties": {"norad_id": 31826, "name": "FENGYUN 1C DEB", "group": "fengyun-1c-debris", "lat": 58.377050575846205, "lon": -36.001232415986365, "alt_km": 877.185378344333, "timestamp": "2025-12-13T03:42:11.557389+00:00", "meta": {"OBJECT_NAME": "FENGYUN 1C DEB", "OBJECT_ID": "1999-025CHQ", "EPOCH": "2025-12-11T11:33:00.652320", "MEAN_MOTION": 14.19272216, "ECCENTRICITY": 0.01238896, "INCLINATION": 98.6262, "RA_OF_ASC_NODE": 336.6416, "ARG_OF_PERICENTER": 192.9591, "MEAN_ANOMALY": 324.2726, "EPHEMERIS_TYPE": 0, "CLASSIFICATION_TYPE": "U", "NORAD_CAT_ID": 31826, "ELEMENT_SET_NO": 999, "REV_AT_EPOCH": 95796, "BSTAR": 0.00055045899, "MEAN_MOTION_DOT": 1.204e-05, "MEAN_MOTION_DDOT": 0}, "tle": {"line1": "1 31826U 99025CHQ 25345.48125755  .00001204  00000+0  55046-3 0  9990", "line2": "2 31826  98.6262 336.6416 0123889 192.9591 324.2726 14.19272216957968"}}, "geometry": {"type": "Point", "coordinates": [-36.001232415986365, 58.377050575846205]}}, {"type": "Feature", "properties": {"norad_id": 31829, "name": "FENGYUN 1C DEB", "group": "fengyun-1c-debris", "lat": -25.349001333365162, "lon": -27.264502298219103, "alt_km": 846.3011916047399, "timestamp": "2025-12-13T03:42:11.557399+00:00", "meta": {"OBJECT_NAME": "FENGYUN 1C DEB", "OBJECT_ID": "1999-025CHT", "EPOCH": "2025-12-10T17:46:33.788640", "MEAN_MOTION": 13.88679676, "ECCENTRICITY": 0.01690998, "INCLINATION": 98.8354, "RA_OF_ASC_NODE": 154.6728, "ARG_OF_PERICENTER": 169.8915, "MEAN_ANOMALY": 214.6031, "EPHEMERIS_TYPE": 0, "CLASSIFICATION_TYPE": "U", "NORAD_CAT_ID": 31829, "ELEMENT_SET_NO": 999, "REV_AT_EPOCH": 94120, "BSTAR": 0.00069465665, "MEAN_MOTION_DOT": 8.98e-06, "MEAN_MOTION_DDOT": 0}, "tle": {"line1": "1 31829U 99025CHT 25344.74066885  .00000898  00000+0  69466-3 0  9998", "line2": "2 31829  98.8354 154.6728 0169099 169.8915 214.6031 13.88679676941202"}}, "geometry": {"type": "Point", "coordinates": [-27.264502298219103, -25.349001333365162]}}, {"type": "Feature", "properties": {"norad_id": 31830, "name": "FENGYUN 1C DEB", "group": "fengyun-1c-debris", "lat": -22.6428005822268, "lon": -91.02963044936868, "alt_km": 1001.8511384514695, "timestamp": "2025-12-13T03:42:11.557410+00:00", "meta": {"OBJECT_NAME": "FENGYUN 1C DEB", "OBJECT_ID": "1999-025CHU", "EPOCH": "2025-12-12T06:01:13.985184", "MEAN_MOTION": 13.83416387, "ECCENTRICITY": 0.01821126, "INCLINATION": 99.1636, "RA_OF_ASC_NODE": 91.9507, "ARG_OF_PERICENTER": 315.8407, "MEAN_ANOMALY": 71.95, "EPHEMERIS_TYPE": 0, "CLASSIFICATION_TYPE": "U", "NORAD_CAT_ID": 31830, "ELEMENT_SET_NO": 999, "REV_AT_EPOCH": 92733, "BSTAR": 0.002565348, "MEAN_MOTION_DOT": 3.164e-05, "MEAN_MOTION_DDOT": 0}, "tle": {"line1": "1 31830U 99025CHU 25346.25085631  .00003164  00000+0  25653-2 0  9996", "line2": "2 31830  99.1636  91.9507 0182112 315.8407  71.9500 13.83416387927335"}}, "geometry": {"type": "Point", "coordinates": [-91.02963044936868, -22.6428005822268]}}, {"type": "Feature", "properties": {"norad_id": 31834, "name": "FENGYUN 1C DEB", "group": "fengyun-1c-debris", "lat": 19.45970385745845, "lon": -155.659608184539, "alt_km": 816.5002909182458, "timestamp": "2025-12-13T03:42:11.557423+00:00", "meta": {"OBJECT_NAME": "FENGYUN 1C DEB", "OBJECT_ID": "1999-025CHY", "EPOCH": "2025-12-09T20:53:13.363584", "MEAN_MOTION": 14.03149473, "ECCENTRICITY": 0.01627896, "INCLINATION": 98.3687, "RA_OF_ASC_NODE": 204.2994, "ARG_OF_PERICENTER": 85.6379, "MEAN_ANOMALY": 276.3369, "EPHEMERIS_TYPE": 0, "CLASSIFICATION_TYPE": "U", "NORAD_CAT_ID": 31834, "ELEMENT_SET_NO": 999, "REV_AT_EPOCH": 63670, "BSTAR": 0.0003269866, "MEAN_MOTION_DOT": 5.35e-06, "MEAN_MOTION_DDOT": 0}, "tle": {"line1": "1 31834U 99025CHY 25343.87029356  .00000535  00000+0  32699-3 0  9995", "line2": "2 31834  98.3687 204.2994 0162789  85.6379 276.3369 14.03149473636707"}}, "geometry": {"type": "Point", "coordinates": [-155.659608184539, 19.45970385745845]}}, {"type": "Feature", "properties": {"norad_id": 31837, "name": "FENGYUN 1C DEB", "group": "fengyun-1c-debris", "lat": 45.10825507582825, "lon": 54.48010330935904, "alt_km": 560.9794366722172, "timestamp": "2025-12-13T03:42:11.557434+00:00", "meta": {"OBJECT_NAME": "FENGYUN 1C DEB", "OBJECT_ID": "1999-025CJB", "EPOCH": "2025-12-11T10:59:52.654848", "MEAN_MOTION": 14.8220749, "ECCENTRICITY": 0.0093842, "INCLINATION": 98.1006, "RA_OF_ASC_NODE": 60.983, "ARG_OF_PERICENTER": 21.8431, "MEAN_ANOMALY": 338.6741, "EPHEMERIS_TYPE": 0, "CLASSIFICATION_TYPE": "U", "NORAD_CAT_ID": 31837, "ELEMENT_SET_NO": 999, "REV_AT_EPOCH": 98340, "BSTAR": 0.0019985815, "MEAN_MOTION_DOT": 0.00017182, "MEAN_MOTION_DDOT": 0}, "tle": {"line1": "1 31837U 99025CJB 25345.45824832  .00017182  00000+0  19986-2 0  9995", "line2": "2 31837  98.1006  60.9830 0093842  21.8431 338.6741 14.82207490983402"}}, "geometry": {"type": "Point", "coordinates": [54.48010330935904, 45.10825507582825]}}, {"type": "Feature", "properties": {"norad_id": 31838, "name": "FENGYUN 1C DEB", "group": "fengyun-1c-debris", "lat": -18.915458322459177, "lon": -145.1729095950121, "alt_km": 833.5336655460897, "timestamp": "2025-12-13T03:42:11.557444+00:00", "meta": {"OBJECT_NAME": "FENGYUN 1C DEB", "OBJECT_ID": "1999-025CJC", "EPOCH": "2025-12-11T08:48:04.078368", "MEAN_MOTION": 14.21128577, "ECCENTRICITY": 0.00386433, "INCLINATION": 98.718, "RA_OF_ASC_NODE": 36.0771, "ARG_OF_PERICENTER": 99.3908, "MEAN_ANOMALY": 318.9348, "EPHEMERIS_TYPE": 0, "CLASSIFICATION_TYPE": "U", "NORAD_CAT_ID": 31838, "ELEMENT_SET_NO": 999, "REV_AT_EPOCH": 64557, "BSTAR": 0.0011422603, "MEAN_MOTION_DOT": 2.458e-05, "MEAN_MOTION_DDOT": 0}, "tle": {"line1": "1 31838U 99025CJC 25345.36671387  .00002458  00000+0  11423-2 0  9999", "line2": "2 31838  98.7180  36.0771 0038643  99.3908 318.9348 14.21128577645575"}}, "geometry": {"type": "Point", "coordinates": [-145.1729095950121, -18.915458322459177]}}]}